GLOBALSTAR M068         
1 32266U 07048D   24245.56143196 -.00000046  00000+0  32015-3 0  9994
2 32266  51.9878 102.0681 0000444 158.9921 218.2644 12.62798227781092
GLOBALSTAR M079         
1 37188U 10054A   24245.57048470 -.00000065  00000+0  21915-3 0  9991
2 37188  52.0041 298.3857 0000470  79.2545  69.1866 12.62263459640002
GLOBALSTAR M074         
1 37189U 10054B   24245.40863691 -.00000059  00000+0  25087-3 0  9991
2 37189  52.0034 298.2455 0000567 116.7574 256.5927 12.62287908640593
GLOBALSTAR M076         
1 37190U 10054C   24245.54429094 -.00000044  00000+0  33247-3 0  9994
2 37190  52.0032 297.9803 0000823  94.6480  52.9342 12.62256260640328
GLOBALSTAR M077         
1 37191U 10054D   24245.61272865 -.00000089  00000+0  84063-4 0  9997
2 37191  52.0049 254.5409 0000276 104.6742  55.4343 12.62263267640709
GLOBALSTAR M075         
1 37192U 10054E   24245.52763786 -.00000072  00000+0  17538-3 0  9999
2 37192  51.9976 340.4449 0000573  99.1296 274.1174 12.62263725639550
GLOBALSTAR M073         
1 37193U 10054F   24245.29046528 -.00000075  00000+0  16167-3 0  9992
2 37193  52.0038 254.7656 0000413  91.9693 282.6253 12.62269075641350
GLOBALSTAR M083         
1 37739U 11033A   24245.65473807 -.00000119  00000+0 -82541-4 0  9990
2 37739  51.9843 202.7790 0000389  29.3959 142.4708 12.62263617610419
GLOBALSTAR M088         
1 37740U 11033B   24245.59419608 -.00000066  00000+0  21277-3 0  9992
2 37740  51.9725 108.6974 0000753  55.2220 322.1186 12.62266915605956
GLOBALSTAR M091         
1 37741U 11033C   24245.52869588 -.00000077  00000+0  14767-3 0  9990
2 37741  51.9995  71.9371 0000701  56.9844 320.7118 12.62266404606731
GLOBALSTAR M085         
1 37742U 11033D   24245.60841660 -.00000096  00000+0  41078-4 0  9998
2 37742  51.9890  22.9862 0000616  78.6180   2.8731 12.62264921607255
GLOBALSTAR M081         
1 37743U 11033E   24245.55484215 -.00000103  00000+0  56596-5 0  9993
2 37743  51.9983  25.7586 0000838  72.2740   5.4391 12.62268575607396
GLOBALSTAR M089         
1 37744U 11033F   24245.58070157 -.00000075  00000+0  16323-3 0  9993
2 37744  51.9956 339.9669 0000955 106.1236 267.5584 12.62267696608249
GLOBALSTAR M084         
1 38040U 11080A   24245.62835539 -.00000102  00000+0  84367-5 0  9999
2 38040  51.9990 206.9525 0000511  94.7035  76.6620 12.62266463586222
GLOBALSTAR M080         
1 38041U 11080B   24245.27827545 -.00000109  00000+0 -27666-4 0  9995
2 38041  52.0043 209.5238 0000722  84.0209  55.7634 12.62264809586307
GLOBALSTAR M082         
1 38042U 11080C   24245.53587088 -.00000099  00000+0  27028-4 0  9999
2 38042  52.0069 164.1557 0000368 348.5440 182.4201 12.62265573587046
GLOBALSTAR M092         
1 38043U 11080D   24245.58456133 -.00000105  00000+0 -44550-5 0  9990
2 38043  52.0067 254.3697 0000310 119.9728  32.5371 12.62265561585507
GLOBALSTAR M090         
1 38044U 11080E   24245.48321458 -.00000089  00000+0  79698-4 0  9991
2 38044  51.9878 158.4966 0000446  30.0965 141.3590 12.62266740587150
GLOBALSTAR M086         
1 38045U 11080F   24245.18769785 -.00000098  00000+0  34731-4 0  9997
2 38045  51.9888 159.9240 0001453  45.2563 103.3678 12.62266178587064
GLOBALSTAR M097         
1 39072U 13005A   24245.49861645 -.00000080  00000+0  13334-3 0  9995
2 39072  52.0049  73.2329 0000830  60.7137 299.3813 12.62270102534352
GLOBALSTAR M093         
1 39073U 13005B   24245.55083889 -.00000085  00000+0  10489-3 0  9992
2 39073  51.9810  66.8344 0000800  59.1210 300.9735 12.62263429534315
GLOBALSTAR M094         
1 39074U 13005C   24245.55096739 -.00000079  00000+0  13803-3 0  9997
2 39074  51.9987 340.9309 0000556  77.7967 282.2962 12.62267341535920
GLOBALSTAR M096         
1 39075U 13005D   24245.64338753 -.00000098  00000+0  33445-4 0  9999
2 39075  52.0093  28.9361 0000683  66.0434 294.0504 12.62269205534858
GLOBALSTAR M078         
1 39076U 13005E   24245.37930146 -.00000183  00000+0 -44397-3 0  9997
2 39076  51.9867 114.6431 0000328 278.4883  81.5946 12.62274237533444
GLOBALSTAR M095         
1 39077U 13005F   24245.56413360 -.00000068  00000+0  20115-3 0  9996
2 39077  51.9789 111.4212 0000585  12.6275 347.4606 12.62264091533329
GLOBALSTAR M087         
1 52888U 22064A   24245.54999106 -.00000041  00000+0  16585-3 0  9998
2 52888  51.9761 302.1083 0009383 195.2308 164.8312 13.37583872107741
